[{"OBJECT_NAME":"STARLINK-3734","OBJECT_ID":"2022-029AA","EPOCH":"2026-03-09T08:35:07.360512","MEAN_MOTION":15.08843024,"ECCENTRICITY":0.00012648,"INCLINATION":53.2172,"RA_OF_ASC_NODE":80.6094,"ARG_OF_PERICENTER":88.4656,"MEAN_ANOMALY":271.6481,"EPHEMERIS_TYPE":0,"CLASSIFICATION_TYPE":"U","NORAD_CAT_ID":52112,"ELEMENT_SET_NO":999,"REV_AT_EPOCH":22073,"BSTAR":9.9272833e-5,"MEAN_MOTION_DOT":1.293e-5,"MEAN_MOTION_DDOT":0},{"OBJECT_NAME":"QPS-SAR-7 (TSUKUYOMI-II)","OBJECT_ID":"2024-066F","EPOCH":"2026-03-09T22:44:25.024704","MEAN_MOTION":15.07520552,"ECCENTRICITY":3.06e-5,"INCLINATION":45.6053,"RA_OF_ASC_NODE":45.6252,"ARG_OF_PERICENTER":310.671,"MEAN_ANOMALY":49.4148,"EPHEMERIS_TYPE":0,"CLASSIFICATION_TYPE":"U","NORAD_CAT_ID":59447,"ELEMENT_SET_NO":999,"REV_AT_EPOCH":10524,"BSTAR":0.00063712098,"MEAN_MOTION_DOT":9.59e-5,"MEAN_MOTION_DDOT":0}]
